Address,City,State,ZIP
301 Med Tech Pkwy,Johnson City,TN,37604
405 Roy Martin Rd,Johnson City,TN,37615
1604 Lamons Ln,Johnson City,TN,37604
3741 W Market St,Johnson City,TN,37604
1021 W Oakland Ave,Johnson City,TN,37604
1019 W Oakland Ave,Johnson City,TN,37604
1321 Sunset Dr,Johnson City,TN,37604
3 Professional Park Dr,Johnson City,TN,37604
1167 Spratlin Park Dr,Johnson City,TN,37615
109 W Watauga Ave,Johnson City,TN,37604
501 E Watauga Ave,Johnson City,TN,37601
310 N State Of Franklin Rd,Johnson City,TN,37604
1301 Sunset Dr,Johnson City,TN,37604
2410 Susannah St,Johnson City,TN,37601
3114 Browns Mill Rd,Johnson City,TN,37604
106 Pinnacle Dr,Johnson City,TN,37615
110 Corporate Dr,Johnson City,TN,37604
329 Wesley St,Johnson City,TN,37601
2 Professional Park Dr,Johnson City,TN,37604
311 Princeton Rd,Johnson City,TN,37601
303 Med Tech Pkwy,Johnson City,TN,37604
403 Princeton Rd,Johnson City,TN,37601
1009 Lark St,Johnson City,TN,37604
917 W Walnut St,Johnson City,TN,37604
107 Woodlawn Dr,Johnson City,TN,37604
2333 Knob Creek Rd,Johnson City,TN,37604
2340 Knob Creek Rd,Johnson City,TN,37604
3201 Bristol Hwy,Johnson City,TN,37601
2244 Boones Creek Rd,Johnson City,TN,37615
222 E Main St,Johnson City,TN,37604
505 N Roan St,Johnson City,TN,37601
201 W Watauga Ave,Johnson City,TN,37604
401 E Main St,Johnson City,TN,37601
830 Johnson Ave,Johnson City,TN,37604
2120 S Roan St,Johnson City,TN,37601
400 N State Of Franklin Rd,Johnson City,TN,37604
2406 Susannah St,Johnson City,TN,37601
302 Wesley St,Johnson City,TN,37601
2514 Wesley St,Johnson City,TN,37601
2428 Knob Creek Rd,Johnson City,TN,37604
